[{"OBJECT_NAME":"STARLINK-33569","OBJECT_ID":"2025-015M","EPOCH":"2026-03-05T01:05:47.355072","MEAN_MOTION":15.30168734,"ECCENTRICITY":0.00012144,"INCLINATION":53.1619,"RA_OF_ASC_NODE":343.7791,"ARG_OF_PERICENTER":53.9938,"MEAN_ANOMALY":306.1175,"EPHEMERIS_TYPE":0,"CLASSIFICATION_TYPE":"U","NORAD_CAT_ID":62769,"ELEMENT_SET_NO":999,"REV_AT_EPOCH":6377,"BSTAR":0.0016009315,"MEAN_MOTION_DOT":0.00047312,"MEAN_MOTION_DDOT":0},{"OBJECT_NAME":"STARLINK-33594","OBJECT_ID":"2025-015N","EPOCH":"2026-03-05T04:03:15.451776","MEAN_MOTION":15.30177429,"ECCENTRICITY":0.00010926,"INCLINATION":53.1615,"RA_OF_ASC_NODE":343.1276,"ARG_OF_PERICENTER":95.7703,"MEAN_ANOMALY":264.3423,"EPHEMERIS_TYPE":0,"CLASSIFICATION_TYPE":"U","NORAD_CAT_ID":62770,"ELEMENT_SET_NO":999,"REV_AT_EPOCH":6379,"BSTAR":0.00097477734,"MEAN_MOTION_DOT":0.00028602,"MEAN_MOTION_DDOT":0},{"OBJECT_NAME":"STARLINK-33598","OBJECT_ID":"2025-015P","EPOCH":"2026-03-05T04:16:55.865568","MEAN_MOTION":15.30194005,"ECCENTRICITY":0.00010278,"INCLINATION":53.1615,"RA_OF_ASC_NODE":343.1803,"ARG_OF_PERICENTER":102.4615,"MEAN_ANOMALY":257.6501,"EPHEMERIS_TYPE":0,"CLASSIFICATION_TYPE":"U","NORAD_CAT_ID":62771,"ELEMENT_SET_NO":999,"REV_AT_EPOCH":6379,"BSTAR":0.0015107471,"MEAN_MOTION_DOT":0.00044645,"MEAN_MOTION_DDOT":0},{"OBJECT_NAME":"STARLINK-33600","OBJECT_ID":"2025-015Q","EPOCH":"2026-03-05T03:40:38.120736","MEAN_MOTION":15.30226873,"ECCENTRICITY":0.00014763,"INCLINATION":53.1614,"RA_OF_ASC_NODE":343.7361,"ARG_OF_PERICENTER":69.1815,"MEAN_ANOMALY":290.9344,"EPHEMERIS_TYPE":0,"CLASSIFICATION_TYPE":"U","NORAD_CAT_ID":62772,"ELEMENT_SET_NO":999,"REV_AT_EPOCH":6378,"BSTAR":0.0013531955,"MEAN_MOTION_DOT":0.00039968,"MEAN_MOTION_DDOT":0},{"OBJECT_NAME":"STARLINK-33567","OBJECT_ID":"2025-015R","EPOCH":"2026-03-05T04:33:38.646432","MEAN_MOTION":15.30192149,"ECCENTRICITY":0.0001086,"INCLINATION":53.1606,"RA_OF_ASC_NODE":343.251,"ARG_OF_PERICENTER":117.712,"MEAN_ANOMALY":242.3991,"EPHEMERIS_TYPE":0,"CLASSIFICATION_TYPE":"U","NORAD_CAT_ID":62773,"ELEMENT_SET_NO":999,"REV_AT_EPOCH":6379,"BSTAR":0.001743797,"MEAN_MOTION_DOT":0.00051634,"MEAN_MOTION_DDOT":0},{"OBJECT_NAME":"STARLINK-33574","OBJECT_ID":"2025-015S","EPOCH":"2026-03-05T05:57:03.764736","MEAN_MOTION":15.30178219,"ECCENTRICITY":9.277e-5,"INCLINATION":53.1603,"RA_OF_ASC_NODE":342.906,"ARG_OF_PERICENTER":85.3772,"MEAN_ANOMALY":274.7334,"EPHEMERIS_TYPE":0,"CLASSIFICATION_TYPE":"U","NORAD_CAT_ID":62774,"ELEMENT_SET_NO":999,"REV_AT_EPOCH":6352,"BSTAR":0.0011395915,"MEAN_MOTION_DOT":0.00033522,"MEAN_MOTION_DDOT":0},{"OBJECT_NAME":"STARLINK-33576","OBJECT_ID":"2025-015T","EPOCH":"2026-03-05T06:33:32.173056","MEAN_MOTION":15.30231988,"ECCENTRICITY":0.00012463,"INCLINATION":53.1598,"RA_OF_ASC_NODE":343.065,"ARG_OF_PERICENTER":116.5199,"MEAN_ANOMALY":243.5929,"EPHEMERIS_TYPE":0,"CLASSIFICATION_TYPE":"U","NORAD_CAT_ID":62775,"ELEMENT_SET_NO":999,"REV_AT_EPOCH":6374,"BSTAR":0.0015654692,"MEAN_MOTION_DOT":0.00046341,"MEAN_MOTION_DDOT":0},{"OBJECT_NAME":"STARLINK-33570","OBJECT_ID":"2025-015U","EPOCH":"2026-03-05T04:21:29.589408","MEAN_MOTION":15.30188035,"ECCENTRICITY":9.592e-5,"INCLINATION":53.161,"RA_OF_ASC_NODE":343.2019,"ARG_OF_PERICENTER":98.5952,"MEAN_ANOMALY":261.5158,"EPHEMERIS_TYPE":0,"CLASSIFICATION_TYPE":"U","NORAD_CAT_ID":62776,"ELEMENT_SET_NO":999,"REV_AT_EPOCH":6373,"BSTAR":0.0016691471,"MEAN_MOTION_DOT":0.00049387,"MEAN_MOTION_DDOT":0},{"OBJECT_NAME":"STARLINK-33591","OBJECT_ID":"2025-015V","EPOCH":"2026-03-05T06:28:58.800864","MEAN_MOTION":15.30241672,"ECCENTRICITY":0.00011779,"INCLINATION":53.1592,"RA_OF_ASC_NODE":343.0458,"ARG_OF_PERICENTER":122.6756,"MEAN_ANOMALY":237.4358,"EPHEMERIS_TYPE":0,"CLASSIFICATION_TYPE":"U","NORAD_CAT_ID":62777,"ELEMENT_SET_NO":999,"REV_AT_EPOCH":6380,"BSTAR":0.0015029866,"MEAN_MOTION_DOT":0.00044479,"MEAN_MOTION_DDOT":0},{"OBJECT_NAME":"STARLINK-33573","OBJECT_ID":"2025-015W","EPOCH":"2026-03-05T04:12:23.811840","MEAN_MOTION":15.30118404,"ECCENTRICITY":0.00010169,"INCLINATION":53.1623,"RA_OF_ASC_NODE":343.1581,"ARG_OF_PERICENTER":32.1253,"MEAN_ANOMALY":327.981,"EPHEMERIS_TYPE":0,"CLASSIFICATION_TYPE":"U","NORAD_CAT_ID":62778,"ELEMENT_SET_NO":999,"REV_AT_EPOCH":6379,"BSTAR":0.0018508296,"MEAN_MOTION_DOT":0.00054722,"MEAN_MOTION_DDOT":0},{"OBJECT_NAME":"STARLINK-33568","OBJECT_ID":"2025-015X","EPOCH":"2026-03-05T04:45:48.391200","MEAN_MOTION":15.301673,"ECCENTRICITY":0.00010956,"INCLINATION":53.1604,"RA_OF_ASC_NODE":343.3065,"ARG_OF_PERICENTER":74.277,"MEAN_ANOMALY":285.8351,"EPHEMERIS_TYPE":0,"CLASSIFICATION_TYPE":"U","NORAD_CAT_ID":62779,"ELEMENT_SET_NO":999,"REV_AT_EPOCH":6363,"BSTAR":0.00085037328,"MEAN_MOTION_DOT":0.00024885,"MEAN_MOTION_DDOT":0},{"OBJECT_NAME":"STARLINK-33593","OBJECT_ID":"2025-015Y","EPOCH":"2026-03-05T05:52:30.222336","MEAN_MOTION":15.30181771,"ECCENTRICITY":0.00010877,"INCLINATION":53.1618,"RA_OF_ASC_NODE":342.8822,"ARG_OF_PERICENTER":84.775,"MEAN_ANOMALY":275.3375,"EPHEMERIS_TYPE":0,"CLASSIFICATION_TYPE":"U","NORAD_CAT_ID":62780,"ELEMENT_SET_NO":999,"REV_AT_EPOCH":6380,"BSTAR":0.0010182428,"MEAN_MOTION_DOT":0.00029903,"MEAN_MOTION_DDOT":0},{"OBJECT_NAME":"STARLINK-33588","OBJECT_ID":"2025-015Z","EPOCH":"2026-03-05T03:14:00.735936","MEAN_MOTION":15.30223375,"ECCENTRICITY":6.228e-5,"INCLINATION":53.1597,"RA_OF_ASC_NODE":341.43,"ARG_OF_PERICENTER":76.472,"MEAN_ANOMALY":283.6351,"EPHEMERIS_TYPE":0,"CLASSIFICATION_TYPE":"U","NORAD_CAT_ID":62781,"ELEMENT_SET_NO":999,"REV_AT_EPOCH":6381,"BSTAR":0.0016918368,"MEAN_MOTION_DOT":0.00050123,"MEAN_MOTION_DDOT":0},{"OBJECT_NAME":"STARLINK-33585","OBJECT_ID":"2025-015AA","EPOCH":"2026-03-05T03:58:41.911968","MEAN_MOTION":15.30179146,"ECCENTRICITY":0.00010692,"INCLINATION":53.1623,"RA_OF_ASC_NODE":343.1047,"ARG_OF_PERICENTER":79.4701,"MEAN_ANOMALY":280.642,"EPHEMERIS_TYPE":0,"CLASSIFICATION_TYPE":"U","NORAD_CAT_ID":62782,"ELEMENT_SET_NO":999,"REV_AT_EPOCH":6351,"BSTAR":0.001575986,"MEAN_MOTION_DOT":0.0004658,"MEAN_MOTION_DDOT":0},{"OBJECT_NAME":"STARLINK-33582","OBJECT_ID":"2025-015AB","EPOCH":"2026-03-05T01:23:53.369376","MEAN_MOTION":15.3036078,"ECCENTRICITY":7.239e-5,"INCLINATION":53.161,"RA_OF_ASC_NODE":343.8478,"ARG_OF_PERICENTER":87.6803,"MEAN_ANOMALY":272.4281,"EPHEMERIS_TYPE":0,"CLASSIFICATION_TYPE":"U","NORAD_CAT_ID":62783,"ELEMENT_SET_NO":999,"REV_AT_EPOCH":6370,"BSTAR":0.0016435396,"MEAN_MOTION_DOT":0.00048882,"MEAN_MOTION_DDOT":0},{"OBJECT_NAME":"STARLINK-33581","OBJECT_ID":"2025-015AC","EPOCH":"2026-03-05T02:08:05.235936","MEAN_MOTION":15.30190302,"ECCENTRICITY":9.729e-5,"INCLINATION":53.1611,"RA_OF_ASC_NODE":344.0442,"ARG_OF_PERICENTER":85.5485,"MEAN_ANOMALY":274.5627,"EPHEMERIS_TYPE":0,"CLASSIFICATION_TYPE":"U","NORAD_CAT_ID":62784,"ELEMENT_SET_NO":999,"REV_AT_EPOCH":6377,"BSTAR":0.0010507731,"MEAN_MOTION_DOT":0.00030882,"MEAN_MOTION_DDOT":0}]
