STARLINK-33569          
1 62769U 25015M   26064.04568698  .00047312  00000+0  16009-2 0  9991
2 62769  53.1619 343.7791 0001214  53.9938 306.1175 15.30168734 63770
STARLINK-33594          
1 62770U 25015N   26064.16892884  .00028602  00000+0  97478-3 0  9994
2 62770  53.1615 343.1276 0001092  95.7703 264.3423 15.30177429 63792
STARLINK-33598          
1 62771U 25015P   26064.17842437  .00044645  00000+0  15107-2 0  9998
2 62771  53.1615 343.1803 0001027 102.4615 257.6501 15.30194005 63796
STARLINK-33600          
1 62772U 25015Q   26064.15321899  .00039968  00000+0  13532-2 0  9993
2 62772  53.1614 343.7361 0001476  69.1815 290.9344 15.30226873 63783
STARLINK-33567          
1 62773U 25015R   26064.19003063  .00051634  00000+0  17438-2 0  9991
2 62773  53.1606 343.2510 0001086 117.7120 242.3991 15.30192149 63790
STARLINK-33574          
1 62774U 25015S   26064.24796024  .00033522  00000+0  11396-2 0  9997
2 62774  53.1603 342.9060 0000927  85.3772 274.7334 15.30178219 63523
STARLINK-33576          
1 62775U 25015T   26064.27328904  .00046341  00000+0  15655-2 0  9994
2 62775  53.1598 343.0650 0001246 116.5199 243.5929 15.30231988 63740
STARLINK-33570          
1 62776U 25015U   26064.18159247  .00049387  00000+0  16691-2 0  9991
2 62776  53.1610 343.2019 0000959  98.5952 261.5158 15.30188035 63730
STARLINK-33591          
1 62777U 25015V   26064.27012501  .00044479  00000+0  15030-2 0  9996
2 62777  53.1592 343.0458 0001177 122.6756 237.4358 15.30241672 63808
STARLINK-33573          
1 62778U 25015W   26064.17527560  .00054722  00000+0  18508-2 0  9997
2 62778  53.1623 343.1581 0001016  32.1253 327.9810 15.30118404 63793
STARLINK-33568          
1 62779U 25015X   26064.19847675  .00024885  00000+0  85037-3 0  9991
2 62779  53.1604 343.3065 0001095  74.2770 285.8351 15.30167300 63634
STARLINK-33593          
1 62780U 25015Y   26064.24479424  .00029903  00000+0  10182-2 0  9996
2 62780  53.1618 342.8822 0001087  84.7750 275.3375 15.30181771 63808
STARLINK-33588          
1 62781U 25015Z   26064.13473074  .00050123  00000+0  16918-2 0  9991
2 62781  53.1597 341.4300 0000622  76.4720 283.6351 15.30223375 63814
STARLINK-33585          
1 62782U 25015AA  26064.16576287  .00046580  00000+0  15760-2 0  9991
2 62782  53.1623 343.1047 0001069  79.4701 280.6420 15.30179146 63517
STARLINK-33582          
1 62783U 25015AB  26064.05825659  .00048882  00000+0  16435-2 0  9997
2 62783  53.1610 343.8478 0000723  87.6803 272.4281 15.30360780 63700
STARLINK-33581          
1 62784U 25015AC  26064.08894949  .00030882  00000+0  10508-2 0  9995
2 62784  53.1611 344.0442 0000972  85.5485 274.5627 15.30190302 63770
